{
    "links": {
        "self": "http://www.neowsapp.com/rest/v1/neo/3562033?api_key=iIulBulltgU6a56xZRHN4H3l9WmuAYTsLGpBGhQ2"
    },
    "id": "3562033",
    "neo_reference_id": "3562033",
    "name": "(2011 GR36)",
    "designation": "2011 GR36",
    "nasa_jpl_url": "http://ssd.jpl.nasa.gov/sbdb.cgi?sstr=3562033",
    "absolute_magnitude_h": 26.2,
    "estimated_diameter": {
        "kilometers": {
            "estimated_diameter_min": 0.0152951935,
            "estimated_diameter_max": 0.0342010925
        },
        "meters": {
            "estimated_diameter_min": 15.2951935344,
            "estimated_diameter_max": 34.201092472
        },
        "miles": {
            "estimated_diameter_min": 0.0095039897,
            "estimated_diameter_max": 0.021251567
        },
        "feet": {
            "estimated_diameter_min": 50.1810827555,
            "estimated_diameter_max": 112.2083122258
        }
    },
    "is_potentially_hazardous_asteroid": false,
    "close_approach_data": [
        {
            "close_approach_date": "2011-04-07",
            "close_approach_date_full": "2011-Apr-07 13:31",
            "epoch_date_close_approach": 1302183060000,
            "relative_velocity": {
                "kilometers_per_second": "9.4269105297",
                "kilometers_per_hour": "33936.8779070356",
                "miles_per_hour": "21087.0561639578"
            },
            "miss_distance": {
                "astronomical": "0.0257441982",
                "lunar": "10.0144930998",
                "kilometers": "3851277.215577834",
                "miles": "2393072.6935047492"
            },
            "orbiting_body": "Earth"
        },
        {
            "close_approach_date": "2014-03-10",
            "close_approach_date_full": "2014-Mar-10 12:01",
            "epoch_date_close_approach": 1394452860000,
            "relative_velocity": {
                "kilometers_per_second": "16.9183417649",
                "kilometers_per_hour": "60906.0303535352",
                "miles_per_hour": "37844.6386938397"
            },
            "miss_distance": {
                "astronomical": "0.2999702255",
                "lunar": "116.6884177195",
                "kilometers": "44874906.798219685",
                "miles": "27883974.087354253"
            },
            "orbiting_body": "Earth"
        }
    ],
    "orbital_data": {
        "orbit_id": "6",
        "orbit_determination_date": "2017-04-06 08:53:48",
        "first_observation_date": "2011-04-04",
        "last_observation_date": "2011-04-07",
        "data_arc_in_days": 3,
        "observations_used": 40,
        "orbit_uncertainty": "7",
        "minimum_orbit_intersection": ".029286",
        "jupiter_tisserand_invariant": "3.595",
        "epoch_osculation": "2459000.5",
        "eccentricity": ".5086874286978714",
        "semi_major_axis": "2.057466159258794",
        "inclination": "10.21718224105418",
        "ascending_node_longitude": "192.4063523475211",
        "orbital_period": "1077.947173327859",
        "perihelion_distance": "1.010858989072553",
        "perihelion_argument": "22.00919527094013",
        "aphelion_distance": "3.104073329445035",
        "perihelion_time": "2458907.489982229066",
        "mean_anomaly": "31.06238155823992",
        "mean_motion": ".3339681284089288",
        "equinox": "J2000",
        "orbit_class": {
            "orbit_class_type": "APO",
            "orbit_class_description": "Near-Earth asteroid orbits which cross the Earth’s orbit similar to that of 1862 Apollo",
            "orbit_class_range": "a (semi-major axis) > 1.0 AU; q (perihelion) < 1.017 AU"
        }
    },
    "is_sentry_object": false
}